[{"OBJECT_NAME":"STARLINK-1954","OBJECT_ID":"2021-009H","EPOCH":"2026-03-09T23:20:25.352160","MEAN_MOTION":15.30849174,"ECCENTRICITY":0.00046184,"INCLINATION":53.0574,"RA_OF_ASC_NODE":8.8654,"ARG_OF_PERICENTER":103.3293,"MEAN_ANOMALY":256.8222,"EPHEMERIS_TYPE":0,"CLASSIFICATION_TYPE":"U","NORAD_CAT_ID":47555,"ELEMENT_SET_NO":999,"REV_AT_EPOCH":28100,"BSTAR":0.0022371791,"MEAN_MOTION_DOT":0.00067883,"MEAN_MOTION_DDOT":0},{"OBJECT_NAME":"STARLINK-32319","OBJECT_ID":"2024-183V","EPOCH":"2026-03-09T11:11:58.583328","MEAN_MOTION":15.30184615,"ECCENTRICITY":0.00013372,"INCLINATION":53.1602,"RA_OF_ASC_NODE":143.8044,"ARG_OF_PERICENTER":64.9227,"MEAN_ANOMALY":295.1913,"EPHEMERIS_TYPE":0,"CLASSIFICATION_TYPE":"U","NORAD_CAT_ID":61528,"ELEMENT_SET_NO":999,"REV_AT_EPOCH":7961,"BSTAR":1.8933656e-5,"MEAN_MOTION_DOT":2.01e-6,"MEAN_MOTION_DDOT":0}]
